[{"OBJECT_NAME":"PHI 1","OBJECT_ID":"2025-276DP","EPOCH":"2026-03-09T17:39:12.133440","MEAN_MOTION":15.19973113,"ECCENTRICITY":0.00029619,"INCLINATION":97.4203,"RA_OF_ASC_NODE":144.0831,"ARG_OF_PERICENTER":121.0034,"MEAN_ANOMALY":239.1492,"EPHEMERIS_TYPE":0,"CLASSIFICATION_TYPE":"U","NORAD_CAT_ID":66775,"ELEMENT_SET_NO":999,"REV_AT_EPOCH":1533,"BSTAR":0.00038773813,"MEAN_MOTION_DOT":8.281e-5,"MEAN_MOTION_DDOT":0},{"OBJECT_NAME":"SITRO-AIS-65","OBJECT_ID":"2025-313U","EPOCH":"2026-03-09T22:33:12.029184","MEAN_MOTION":15.21573272,"ECCENTRICITY":0.0014457,"INCLINATION":97.4029,"RA_OF_ASC_NODE":145.2196,"ARG_OF_PERICENTER":357.2881,"MEAN_ANOMALY":2.8274,"EPHEMERIS_TYPE":0,"CLASSIFICATION_TYPE":"U","NORAD_CAT_ID":67266,"ELEMENT_SET_NO":999,"REV_AT_EPOCH":1085,"BSTAR":0.00052340138,"MEAN_MOTION_DOT":0.00011774,"MEAN_MOTION_DDOT":0}]
